{
  "type": "FeatureCollection",
  "features": [
    {
      "type": "Feature",
      "properties": {
        "norad_id": 34079,
        "name": "IRIDIUM 33 DEB",
        "group": "iridium-33-debris",
        "lat": 45.724828290606844,
        "lon": 13.539298440510468,
        "alt_km": 611.086876285909,
        "timestamp": "2025-12-10T04:57:30.006890+00:00",
        "meta_object_name": "IRIDIUM 33 DEB",
        "meta_object_id": "1997-051CN",
        "meta_epoch": "2025-12-09T19:49:59.377152",
        "meta_mean_motion": 14.83403251,
        "meta_eccentricity": 0.0005976,
        "meta_inclination": 86.3775,
        "meta_ra_of_asc_node": 9.9867,
        "meta_arg_of_pericenter": 17.2043,
        "meta_mean_anomaly": 159.5676,
        "meta_ephemeris_type": 0,
        "meta_classification_type": "U",
        "meta_norad_cat_id": 34079,
        "meta_element_set_no": 999,
        "meta_rev_at_epoch": 88934,
        "meta_bstar": 0.0023828,
        "meta_mean_motion_dot": 0.00019611,
        "meta_mean_motion_ddot": 0,
        "tle_line1": "1 34079U 97051CN  25343.82638168  .00019611  00000+0  23828-2 0  9996",
        "tle_line2": "2 34079  86.3775   9.9867 0005976  17.2043 159.5676 14.83403251889346"
      },
      "geometry": {
        "type": "Point",
        "coordinates": [
          13.539298440510468,
          45.724828290606844
        ]
      }
    },
    {
      "type": "Feature",
      "properties": {
        "norad_id": 34088,
        "name": "IRIDIUM 33 DEB",
        "group": "iridium-33-debris",
        "lat": 65.67670537675531,
        "lon": 39.928981136628224,
        "alt_km": 589.8692108436226,
        "timestamp": "2025-12-10T04:57:30.006903+00:00",
        "meta_object_name": "IRIDIUM 33 DEB",
        "meta_object_id": "1997-051CX",
        "meta_epoch": "2025-12-09T11:14:20.281920",
        "meta_mean_motion": 14.91127801,
        "meta_eccentricity": 0.00054768,
        "meta_inclination": 86.3845,
        "meta_ra_of_asc_node": 32.2268,
        "meta_arg_of_pericenter": 188.4748,
        "meta_mean_anomaly": 236.8538,
        "meta_ephemeris_type": 0,
        "meta_classification_type": "U",
        "meta_norad_cat_id": 34088,
        "meta_element_set_no": 999,
        "meta_rev_at_epoch": 88693,
        "meta_bstar": 0.0032694567,
        "meta_mean_motion_dot": 0.0003256,
        "meta_mean_motion_ddot": 0,
        "tle_line1": "1 34088U 97051CX  25343.46829030  .00032560  00000+0  32695-2 0  9996",
        "tle_line2": "2 34088  86.3845  32.2268 0005476 188.4748 236.8538 14.91127801886937"
      },
      "geometry": {
        "type": "Point",
        "coordinates": [
          39.928981136628224,
          65.67670537675531
        ]
      }
    },
    {
      "type": "Feature",
      "properties": {
        "norad_id": 34091,
        "name": "IRIDIUM 33 DEB",
        "group": "iridium-33-debris",
        "lat": -20.76355937057282,
        "lon": 66.60346507569984,
        "alt_km": 611.3721640305175,
        "timestamp": "2025-12-10T04:57:30.006914+00:00",
        "meta_object_name": "IRIDIUM 33 DEB",
        "meta_object_id": "1997-051DA",
        "meta_epoch": "2025-12-09T06:21:21.737088",
        "meta_mean_motion": 14.81387493,
        "meta_eccentricity": 0.0033239,
        "meta_inclination": 86.3413,
        "meta_ra_of_asc_node": 68.4246,
        "meta_arg_of_pericenter": 305.7588,
        "meta_mean_anomaly": 54.0544,
        "meta_ephemeris_type": 0,
        "meta_classification_type": "U",
        "meta_norad_cat_id": 34091,
        "meta_element_set_no": 999,
        "meta_rev_at_epoch": 87815,
        "meta_bstar": 0.0066531,
        "meta_mean_motion_dot": 0.00052856,
        "meta_mean_motion_ddot": 0,
        "tle_line1": "1 34091U 97051DA  25343.26483492  .00052856  00000+0  66531-2 0  9992",
        "tle_line2": "2 34091  86.3413  68.4246 0033239 305.7588  54.0544 14.81387493878159"
      },
      "geometry": {
        "type": "Point",
        "coordinates": [
          66.60346507569984,
          -20.76355937057282
        ]
      }
    },
    {
      "type": "Feature",
      "properties": {
        "norad_id": 34097,
        "name": "IRIDIUM 33 DEB",
        "group": "iridium-33-debris",
        "lat": -66.14191229881831,
        "lon": -6.117208274098016,
        "alt_km": 769.2389268707875,
        "timestamp": "2025-12-10T04:57:30.006924+00:00",
        "meta_object_name": "IRIDIUM 33 DEB",
        "meta_object_id": "1997-051DG",
        "meta_epoch": "2025-12-09T12:31:33.069792",
        "meta_mean_motion": 14.34736702,
        "meta_eccentricity": 0.0082938,
        "meta_inclination": 86.2001,
        "meta_ra_of_asc_node": 2.8277,
        "meta_arg_of_pericenter": 12.6718,
        "meta_mean_anomaly": 347.6535,
        "meta_ephemeris_type": 0,
        "meta_classification_type": "U",
        "meta_norad_cat_id": 34097,
        "meta_element_set_no": 999,
        "meta_rev_at_epoch": 87073,
        "meta_bstar": 0.0020674,
        "meta_mean_motion_dot": 6.107e-05,
        "meta_mean_motion_ddot": 0,
        "tle_line1": "1 34097U 97051DG  25343.52191053  .00006107  00000+0  20674-2 0  9992",
        "tle_line2": "2 34097  86.2001   2.8277 0082938  12.6718 347.6535 14.34736702870738"
      },
      "geometry": {
        "type": "Point",
        "coordinates": [
          -6.117208274098016,
          -66.14191229881831
        ]
      }
    },
    {
      "type": "Feature",
      "properties": {
        "norad_id": 34145,
        "name": "IRIDIUM 33 DEB",
        "group": "iridium-33-debris",
        "lat": 44.04098133190602,
        "lon": 149.980893945724,
        "alt_km": 714.4676557796447,
        "timestamp": "2025-12-10T04:57:30.006934+00:00",
        "meta_object_name": "IRIDIUM 33 DEB",
        "meta_object_id": "1997-051DY",
        "meta_epoch": "2025-12-09T10:01:09.026976",
        "meta_mean_motion": 14.42251473,
        "meta_eccentricity": 0.00556161,
        "meta_inclination": 86.2119,
        "meta_ra_of_asc_node": 334.0058,
        "meta_arg_of_pericenter": 104.3525,
        "meta_mean_anomaly": 256.3858,
        "meta_ephemeris_type": 0,
        "meta_classification_type": "U",
        "meta_norad_cat_id": 34145,
        "meta_element_set_no": 999,
        "meta_rev_at_epoch": 87590,
        "meta_bstar": 0.0016534219,
        "meta_mean_motion_dot": 5.573e-05,
        "meta_mean_motion_ddot": 0,
        "tle_line1": "1 34145U 97051DY  25343.41746559  .00005573  00000+0  16534-2 0  9997",
        "tle_line2": "2 34145  86.2119 334.0058 0055616 104.3525 256.3858 14.42251473875901"
      },
      "geometry": {
        "type": "Point",
        "coordinates": [
          149.980893945724,
          44.04098133190602
        ]
      }
    },
    {
      "type": "Feature",
      "properties": {
        "norad_id": 34146,
        "name": "IRIDIUM 33 DEB",
        "group": "iridium-33-debris",
        "lat": 71.01020239256226,
        "lon": 1.8065590504432416,
        "alt_km": 738.8560610267177,
        "timestamp": "2025-12-10T04:57:30.006945+00:00",
        "meta_object_name": "IRIDIUM 33 DEB",
        "meta_object_id": "1997-051DZ",
        "meta_epoch": "2025-12-09T11:08:14.290656",
        "meta_mean_motion": 14.49013185,
        "meta_eccentricity": 0.00252302,
        "meta_inclination": 86.2836,
        "meta_ra_of_asc_node": 351.2473,
        "meta_arg_of_pericenter": 233.2613,
        "meta_mean_anomaly": 287.271,
        "meta_ephemeris_type": 0,
        "meta_classification_type": "U",
        "meta_norad_cat_id": 34146,
        "meta_element_set_no": 999,
        "meta_rev_at_epoch": 88059,
        "meta_bstar": 0.001459577,
        "meta_mean_motion_dot": 5.577e-05,
        "meta_mean_motion_ddot": 0,
        "tle_line1": "1 34146U 97051DZ  25343.46405429  .00005577  00000+0  14596-2 0  9991",
        "tle_line2": "2 34146  86.2836 351.2473 0025230 233.2613 287.2710 14.49013185880593"
      },
      "geometry": {
        "type": "Point",
        "coordinates": [
          1.8065590504432416,
          71.01020239256226
        ]
      }
    },
    {
      "type": "Feature",
      "properties": {
        "norad_id": 34159,
        "name": "IRIDIUM 33 DEB",
        "group": "iridium-33-debris",
        "lat": -61.97213060797505,
        "lon": -123.79362189758467,
        "alt_km": 760.0204691834178,
        "timestamp": "2025-12-10T04:57:30.006955+00:00",
        "meta_object_name": "IRIDIUM 33 DEB",
        "meta_object_id": "1997-051EN",
        "meta_epoch": "2025-12-09T14:28:40.150272",
        "meta_mean_motion": 14.38481975,
        "meta_eccentricity": 0.0026022,
        "meta_inclination": 86.3511,
        "meta_ra_of_asc_node": 49.5787,
        "meta_arg_of_pericenter": 298.8838,
        "meta_mean_anomaly": 60.975,
        "meta_ephemeris_type": 0,
        "meta_classification_type": "U",
        "meta_norad_cat_id": 34159,
        "meta_element_set_no": 999,
        "meta_rev_at_epoch": 87914,
        "meta_bstar": 0.00067158,
        "meta_mean_motion_dot": 2.077e-05,
        "meta_mean_motion_ddot": 0,
        "tle_line1": "1 34159U 97051EN  25343.60324248  .00002077  00000+0  67158-3 0  9995",
        "tle_line2": "2 34159  86.3511  49.5787 0026022 298.8838  60.9750 14.38481975879142"
      },
      "geometry": {
        "type": "Point",
        "coordinates": [
          -123.79362189758467,
          -61.97213060797505
        ]
      }
    }
  ]
}